STARLINK-35610          
1 66428U 25259G   25343.50002315  .00036526  00000+0  87873-3 0  9999
2 66428  43.0008  66.5990 0001434 271.0468 116.8771 15.40656972  5751
STARLINK-35533          
1 66429U 25259H   25343.50002315  .00035129  00000+0  84550-3 0  9997
2 66429  43.0008  66.5675 0001313 280.8657 119.5051 15.40658407  5752
STARLINK-35470          
1 66430U 25259J   25343.50002315  .00049033  00000+0  11754-2 0  9993
2 66430  43.0005  66.5383 0001390 294.5616 118.2355 15.40652645  5750
STARLINK-35439          
1 66431U 25259K   25343.50002315 -.00052708  00000+0 -12621-2 0  9993
2 66431  43.0005  66.5071 0001248 292.7285 132.4382 15.40728031  5750
STARLINK-35446          
1 66432U 25259L   25343.50002315  .00078023  00000+0  18621-2 0  9996
2 66432  43.0002  66.4758 0001119 248.2938 189.4661 15.40600483  5759
STARLINK-35457          
1 66433U 25259M   25343.50002315  .00036158  00000+0  86992-3 0  9997
2 66433  43.0001  66.4462 0001217 254.3597 195.7645 15.40658861  5754
STARLINK-35389          
1 66434U 25259N   25343.50002315  .00051913  00000+0  12437-2 0  9996
2 66434  43.0002  66.4173 0000899 263.6832 198.8840 15.40648602  5758
STARLINK-35502          
1 66435U 25259P   25343.50002315  .00044705  00000+0  10728-2 0  9999
2 66435  42.9997  66.3863 0001092 271.4031 203.6159 15.40653888  5759
STARLINK-35501          
1 66436U 25259Q   25343.50002315  .00060950  00000+0  14573-2 0  9992
2 66436  43.0000  66.3248 0001340 300.1022 199.7857 15.40645016  5754
STARLINK-35474          
1 66437U 25259R   25343.50002315 -.01213823  00000+0 -31097-1 0  9994
2 66437  43.0000  66.2956 0001697 294.4362 217.4071 15.41557794  5759
STARLINK-34681          
1 66438U 25259S   25343.50002315 -.02630269  00000+0 -65043-1 0  9991
2 66438  42.9997  66.2705 0000382 286.6444 235.5436 15.43606418  5654
STARLINK-35327          
1 66439U 25259T   25343.50002315  .00048834  00000+0  11707-2 0  9998
2 66439  43.0000  66.3566 0000918 271.9316 215.5109 15.40652075  5751
